NORAD_CAT_ID,OBJECT_NAME,OBJECT_TYPE,EPOCH,MEAN_MOTION,ECCENTRICITY,INCLINATION,RA_OF_ASC_NODE,ARG_OF_PERICENTER,MEAN_ANOMALY,BSTAR,MEAN_MOTION_DOT,MEAN_MOTION_DDOT,TLE_LINE0,TLE_LINE1,TLE_LINE2,SEMIMAJOR_AXIS,PERIOD,APOGEE,PERIGEE,DECAYED
50816.0,STARLINK-3342,PAYLOAD,2024-01-15 11:19:23,15.08846627,0.0001815,53.215,89.6153,46.5844,313.5299,0.00021025,3.06e-05,0.0,0 STARLINK-3342,1 50816U 22001P   24015.47179738  .00003060  00000-0  21025-3 0  9995,2 50816  53.2150  89.6153 0001815  46.5844 313.5299 15.08846627113291,6917.86,95.437,540.981,538.47,0.0
50816.0,STARLINK-3342,PAYLOAD,2024-01-16 11:10:09,15.0884402,0.0001471,53.2163,85.1492,101.7501,258.3656,2.8563e-05,1.67e-06,0.0,0 STARLINK-3342,1 50816U 22001P   24016.46539163  .00000167  00000-0  28563-4 0  9997,2 50816  53.2163  85.1492 0001471 101.7501 258.3656 15.08844020112167,6917.868,95.437,540.751,538.715,0.0
50816.0,STARLINK-3342,PAYLOAD,2024-01-16 23:53:15,15.08836734,0.0001676,53.2171,82.7751,87.3356,272.7828,1.4512e-05,-5.7e-07,0.0,0 STARLINK-3342,1 50816U 22001P   24016.99532029 -.00000057  00000-0  14512-4 0  9997,2 50816  53.2171  82.7751 0001676  87.3356 272.7828 15.08836734113526,6917.89,95.438,540.915,538.596,0.0
50816.0,STARLINK-3342,PAYLOAD,2024-01-17 09:25:34,15.08837321,0.0001714,53.2177,80.9889,85.4983,274.6205,-6.9576e-05,-1.395e-05,0.0,0 STARLINK-3342,1 50816U 22001P   24017.39276502 -.00001395  00000-0 -69576-4 0  9990,2 50816  53.2177  80.9889 0001714  85.4983 274.6205 15.08837321112300,6917.889,95.438,540.939,538.568,0.0
50816.0,STARLINK-3342,PAYLOAD,2024-01-18 04:30:12,15.0883281,0.0001216,53.2167,77.4195,66.4411,293.6709,7.238e-05,8.64e-06,0.0,0 STARLINK-3342,1 50816U 22001P   24018.18764695  .00000864  00000-0  72380-4 0  9998,2 50816  53.2167  77.4195 0001216  66.4411 293.6709 15.08832810113705,6917.902,95.438,540.609,538.926,0.0
50816.0,STARLINK-3342,PAYLOAD,2024-01-18 10:51:44,15.08838534,0.0001325,53.2167,76.23,78.4956,281.6185,0.00010808,1.433e-05,0.0,0 STARLINK-3342,1 50816U 22001P   24018.45260279  .00001433  00000-0  10808-3 0  9996,2 50816  53.2167  76.2300 0001325  78.4956 281.6185 15.08838534112464,6917.885,95.438,540.666,538.833,0.0
50816.0,STARLINK-3342,PAYLOAD,2024-01-19 12:17:54,15.08849191,0.0001414,53.2174,71.4764,83.7658,276.3495,0.00018066,2.589e-05,0.0,0 STARLINK-3342,1 50816U 22001P   24019.51243799  .00002589  00000-0  18066-3 0  9999,2 50816  53.2174  71.4764 0001414  83.7658 276.3495 15.08849191112624,6917.852,95.437,540.695,538.739,0.0
50816.0,STARLINK-3342,PAYLOAD,2024-01-20 02:36:23,15.08836855,0.0001686,53.2158,68.7956,76.7046,283.4134,2.9745e-05,1.85e-06,0.0,0 STARLINK-3342,1 50816U 22001P   24020.10860623  .00000185  00000-0  29745-4 0  9994,2 50816  53.2158  68.7956 0001686  76.7046 283.4134 15.08836855113995,6917.89,95.438,540.921,538.589,0.0
50816.0,STARLINK-3342,PAYLOAD,2024-01-20 12:08:42,15.08844324,0.0001714,53.217,67.0099,88.5065,271.6123,0.00010859,1.441e-05,0.0,0 STARLINK-3342,1 50816U 22001P   24020.50604465  .00001441  00000-0  10859-3 0  9999,2 50816  53.2170  67.0099 0001714  88.5065 271.6123 15.08844324112775,6917.867,95.437,540.918,538.546,0.0
50816.0,STARLINK-3342,PAYLOAD,2024-01-20 23:16:24,15.08836409,0.0001665,53.2166,64.9291,100.4911,259.6269,-1.8695e-08,-2.88e-06,0.0,0 STARLINK-3342,1 50816U 22001P   24020.96972723 -.00000288  00000-0 -18695-7 0  9994,2 50816  53.2166  64.9291 0001665 100.4911 259.6269 15.08836409112849,6917.891,95.438,540.908,538.605,0.0
50816.0,STARLINK-3342,PAYLOAD,2024-01-21 10:24:06,15.08844802,0.0001848,53.2163,62.8505,80.9674,279.1527,0.00012441,1.693e-05,0.0,0 STARLINK-3342,1 50816U 22001P   24021.43340504  .00001693  00000-0  12441-3 0  9991,2 50816  53.2163  62.8505 0001848  80.9674 279.1527 15.08844802114192,6917.866,95.437,541.009,538.452,0.0
50816.0,STARLINK-3342,PAYLOAD,2024-01-22 02:17:57,15.08837092,0.0001845,53.2181,59.8734,100.9698,259.1502,2.3631e-05,8.8e-07,0.0,0 STARLINK-3342,1 50816U 22001P   24022.09580900  .00000088  00000-0  23631-4 0  9991,2 50816  53.2181  59.8734 0001845 100.9698 259.1502 15.08837092114293,6917.889,95.438,541.031,538.478,0.0
50816.0,STARLINK-3342,PAYLOAD,2024-01-22 07:04:07,15.08836849,0.000201,53.2163,58.9827,82.7049,277.4171,6.8827e-05,8.07e-06,0.0,0 STARLINK-3342,1 50816U 22001P   24022.29453153  .00000807  00000-0  68827-4 0  9997,2 50816  53.2163  58.9827 0002010  82.7049 277.4171 15.08836849113044,6917.89,95.438,541.146,538.365,0.0
50816.0,STARLINK-3342,PAYLOAD,2024-01-22 08:39:30,15.08836734,0.0002021,53.2162,58.6854,84.4116,275.7107,7.9131e-05,9.71e-06,0.0,0 STARLINK-3342,1 50816U 22001P   24022.36077167  .00000971  00000-0  79131-4 0  9994,2 50816  53.2162  58.6854 0002021  84.4116 275.7107 15.08836734113050,6917.89,95.438,541.153,538.357,0.0
50816.0,STARLINK-3342,PAYLOAD,2024-01-23 06:54:54,15.08844163,0.0002023,53.2167,54.5222,103.633,256.4887,0.00017347,2.474e-05,0.0,0 STARLINK-3342,1 50816U 22001P   24023.28812816  .00002474  00000-0  17347-3 0  9994,2 50816  53.2167  54.5222 0002023 103.6330 256.4887 15.08844163113194,6917.868,95.437,541.132,538.333,0.0
50816.0,STARLINK-3342,PAYLOAD,2024-01-23 08:30:17,15.08846305,0.0001979,53.2168,54.2252,100.184,259.9375,0.00020059,2.906e-05,0.0,0 STARLINK-3342,1 50816U 22001P   24023.35436728  .00002906  00000-0  20059-3 0  9990,2 50816  53.2168  54.2252 0001979 100.1840 259.9375 15.08846305114485,6917.861,95.437,541.095,538.357,0.0
50816.0,STARLINK-3342,PAYLOAD,2024-01-24 08:21:05,15.0882819,0.0002084,53.2182,49.763,102.2496,257.873,0.00034103,5.142e-05,0.0,0 STARLINK-3342,1 50816U 22001P   24024.34797859  .00005142  00000-0  34103-3 0  9995,2 50816  53.2182  49.7630 0002084 102.2496 257.8730 15.08828190114639,6917.916,95.438,541.223,538.34,0.0
50816.0,STARLINK-3342,PAYLOAD,2024-01-25 06:36:28,15.0884089,0.0002207,53.2199,45.6047,107.2495,252.8739,7.3428e-05,8.81e-06,0.0,0 STARLINK-3342,1 50816U 22001P   24025.27533254  .00000881  00000-0  73428-4 0  9994,2 50816  53.2199  45.6047 0002207 107.2495 252.8739 15.08840890114775,6917.878,95.437,541.269,538.216,0.0
50816.0,STARLINK-3342,PAYLOAD,2024-01-26 06:27:15,15.08839095,0.0002254,53.2198,41.1459,116.6833,243.439,0.00011247,1.502e-05,0.0,0 STARLINK-3342,1 50816U 22001P   24026.26893394  .00001502  00000-0  11247-3 0  9999,2 50816  53.2198  41.1459 0002254 116.6833 243.4390 15.08839095113643,6917.883,95.438,541.307,538.189,0.0
50816.0,STARLINK-3342,PAYLOAD,2024-01-27 09:28:49,15.08842969,0.0001883,53.2188,36.084,94.4294,265.6914,9.1365e-05,1.166e-05,0.0,0 STARLINK-3342,1 50816U 22001P   24027.39501466  .00001166  00000-0  91365-4 0  9996,2 50816  53.2188  36.0840 0001883  94.4294 265.6914 15.08842969115093,6917.871,95.437,541.039,538.434,0.0
50816.0,STARLINK-3342,PAYLOAD,2024-01-28 04:33:27,15.08836634,0.0001895,53.2187,32.5154,99.4737,260.647,6.4258e-05,7.35e-06,0.0,0 STARLINK-3342,1 50816U 22001P   24028.18989933  .00000735  00000-0  64258-4 0  9995,2 50816  53.2187  32.5154 0001895  99.4737 260.6470 15.08836634115219,6917.891,95.438,541.067,538.445,0.0
50816.0,STARLINK-3342,PAYLOAD,2024-01-28 09:19:36,15.08843103,0.0002095,53.2194,31.6177,103.5704,256.5522,0.00010219,1.339e-05,0.0,0 STARLINK-3342,1 50816U 22001P   24028.38861419  .00001339  00000-0  10219-3 0  9993,2 50816  53.2194  31.6177 0002095 103.5704 256.5522 15.08843103113967,6917.871,95.437,541.185,538.287,0.0
50816.0,STARLINK-3342,PAYLOAD,2024-01-29 07:35:00,15.08838344,0.0001698,53.2181,27.4635,82.7108,277.4077,1.9436e-05,2.1e-07,0.0,0 STARLINK-3342,1 50816U 22001P   24029.31598141  .00000021  00000-0  19436-4 0  9994,2 50816  53.2181  27.4635 0001698  82.7108 277.4077 15.08838344115385,6917.885,95.438,540.925,538.576,0.0
50816.0,STARLINK-3342,PAYLOAD,2024-01-30 09:01:10,15.08851244,0.0001771,53.218,22.7038,91.2746,268.8449,9.0861e-05,1.159e-05,0.0,0 STARLINK-3342,1 50816U 22001P   24030.37581348  .00001159  00000-0  90861-4 0  9997,2 50816  53.2180  22.7038 0001771  91.2746 268.8449 15.08851244115543,6917.846,95.437,540.936,538.486,0.0
50816.0,STARLINK-3342,PAYLOAD,2024-01-30 23:19:38,15.08844049,0.0002056,53.22,20.0259,110.8025,249.3188,7.9784e-05,9.82e-06,0.0,0 STARLINK-3342,1 50816U 22001P   24030.97197669  .00000982  00000-0  79784-4 0  9996,2 50816  53.2200  20.0259 0002056 110.8025 249.3188 15.08844049114354,6917.868,95.437,541.155,538.311,0.0
50816.0,STARLINK-3342,PAYLOAD,2024-01-31 04:05:47,15.08847394,0.0001791,53.2189,19.134,104.0499,256.0692,8.9915e-05,1.143e-05,0.0,0 STARLINK-3342,1 50816U 22001P   24031.17069409  .00001143  00000-0  89915-4 0  9996,2 50816  53.2189  19.1340 0001791 104.0499 256.0692 15.08847394115661,6917.858,95.437,540.962,538.484,0.0
50816.0,STARLINK-3342,PAYLOAD,2024-01-31 05:41:11,15.08844058,0.0001827,53.2184,18.8403,85.6645,274.4556,0.00014866,2.079e-05,0.0,0 STARLINK-3342,1 50816U 22001P   24031.23693527  .00002079  00000-0  14866-3 0  9998,2 50816  53.2184  18.8403 0001827  85.6645 274.4556 15.08844058114395,6917.868,95.437,540.997,538.469,0.0
50816.0,STARLINK-3342,PAYLOAD,2024-01-31 23:10:26,15.08842421,0.0002081,53.2197,15.5649,107.8061,252.3159,-3.0829e-05,-7.79e-06,0.0,0 STARLINK-3342,1 50816U 22001P   24031.96558186 -.00000779  00000-0 -30829-4 0  9994,2 50816  53.2197  15.5649 0002081 107.8061 252.3159 15.08842421114506,6917.873,95.437,541.178,538.298,0.0
50816.0,STARLINK-3342,PAYLOAD,2024-02-01 03:56:35,15.08840144,0.000212,53.2193,14.6724,120.8066,239.3135,-3.65e-05,-8.69e-06,0.0,0 STARLINK-3342,1 50816U 22001P   24032.16430194 -.00000869  00000-0 -36500-4 0  9997,2 50816  53.2193  14.6724 0002120 120.8066 239.3135 15.08840144115814,6917.88,95.438,541.212,538.278,0.0
50816.0,STARLINK-3342,PAYLOAD,2024-02-01 08:42:45,15.08839767,0.000181,53.2187,13.7801,114.1284,245.9898,-5.4837e-05,-1.161e-05,0.0,0 STARLINK-3342,1 50816U 22001P   24032.36302255 -.00001161  00000-0 -54837-4 0  9994,2 50816  53.2187  13.7801 0001810 114.1284 245.9898 15.08839767114565,6917.881,95.438,540.998,538.494,0.0
